FIRST-MOVE              
1 39439U 13066Z   19173.00580432  .00000273  00000-0  39682-4 0  9991
2 39439  97.5700 186.1671 0066133  25.2400 335.2020 14.81833547301430
MOVE-II                 
1 43780U 18099Y   19173.68549336  .00000915  00000-0  88715-4 0  9992
2 43780  97.7441 245.5420 0012459 324.2951  35.7397 14.95056904 30005
